{
    "CCSDS_OMM_VERS": "3.0",
    "COMMENT": "GENERATED VIA SPACE-TRACK.ORG API",
    "CREATION_DATE": "2025-11-23T21:08:43",
    "ORIGINATOR": "18 SPCS",
    "OBJECT_NAME": "GALILEO 14 (26B)",
    "OBJECT_ID": "2016-030A",
    "CENTER_NAME": "EARTH",
    "REF_FRAME": "TEME",
    "TIME_SYSTEM": "UTC",
    "MEAN_ELEMENT_THEORY": "SGP4",
    "EPOCH": "2025-11-22T07:39:06.100704",
    "MEAN_MOTION": "1.70473086",
    "ECCENTRICITY": "0.00037538",
    "INCLINATION": "55.1598",
    "RA_OF_ASC_NODE": "227.3857",
    "ARG_OF_PERICENTER": "1.0711",
    "MEAN_ANOMALY": "359.0098",
    "EPHEMERIS_TYPE": "0",
    "CLASSIFICATION_TYPE": "U",
    "NORAD_CAT_ID": "41549",
    "ELEMENT_SET_NO": "999",
    "REV_AT_EPOCH": "5914",
    "BSTAR": "0.00000000000000",
    "MEAN_MOTION_DOT": "0.00000025",
    "MEAN_MOTION_DDOT": "0.0000000000000",
    "SEMIMAJOR_AXIS": "29600.426",
    "PERIOD": "844.708",
    "APOAPSIS": "23233.402",
    "PERIAPSIS": "23211.179",
    "OBJECT_TYPE": "PAYLOAD",
    "RCS_SIZE": "LARGE",
    "COUNTRY_CODE": "ESA",
    "LAUNCH_DATE": "2016-05-24",
    "SITE": "FRGUI",
    "DECAY_DATE": null,
    "FILE": "4896238",
    "GP_ID": "303332610",
    "TLE_LINE0": "0 GALILEO 14 (26B)",
    "TLE_LINE1": "1 41549U 16030A   25326.31882061  .00000025  00000-0  00000-0 0  9997",
    "TLE_LINE2": "2 41549  55.1598 227.3857 0003754   1.0711 359.0098  1.70473086 59140"
}